HULIANWANG DIGUI-106    
1 66916U 25285B   25359.72792784  .00000041  00000+0  12186-3 0  9995
2 66916  50.0066  64.3595 0006917 319.3785  40.6603 14.03704939  2739
HULIANWANG DIGUI-107    
1 66917U 25285C   25359.72622317  .00000031  00000+0  11531-3 0  9992
2 66917  50.0031  64.3423 0007561 328.7513  31.2941 14.03664924  2731
HULIANWANG DIGUI-108    
1 66918U 25285D   25359.72566083  .00000043  00000+0  12299-3 0  9995
2 66918  50.0064  64.3441 0006687 323.3233  36.7213 14.03604037  2737
HULIANWANG DIGUI-109    
1 66919U 25285E   25359.72380731  .00000054  00000+0  12991-3 0  9991
2 66919  50.0077  64.3400 0007936 335.6516  24.4013 14.03728285  2739
HULIANWANG DIGUI-110    
1 66920U 25285F   25359.79429594  .00000031  00000+0  11552-3 0  9998
2 66920  50.0121  64.0540 0005650 332.8565  27.2043 14.03684435  2740
HULIANWANG DIGUI-111    
1 66921U 25285G   25359.79359096  .00000039  00000+0  12053-3 0  9993
2 66921  50.0126  64.0540 0006729 336.7721  23.2878 14.03634019  2746
HULIANWANG DIGUI-112    
1 66922U 25285H   25359.79246830  .00000032  00000+0  11581-3 0  9993
2 66922  50.0100  64.0396 0006541 347.3560  12.7179 14.03664021  2742
HULIANWANG DIGUI-113    
1 66923U 25285J   25359.79120934  .00000050  00000+0  12729-3 0  9995
2 66923  50.0098  64.0347 0005152 341.8765  18.1956 14.03701985  2742
CZ-8A R/B               
1 66924U 25285K   25359.44508522  .00000021  00000+0  66135-4 0  9990
2 66924  50.0085  62.0719 0119239 151.5350 209.2146 14.30506687  2744
STARLINK-35945          
1 66925U 25286A   25359.75002315 -.01936693  00000+0 -26101-1 0  9997
2 66925  53.1595 345.5784 0000855  93.8772 294.1395 15.60565824  4085
STARLINK-35942          
1 66926U 25286B   25359.75002315 -.01981955  00000+0 -28771-1 0  9994
2 66926  53.1597 345.6137 0001005  85.8881 284.6314 15.58719447  4085
STARLINK-35943          
1 66927U 25286C   25359.75002315 -.01970519  00000+0 -28588-1 0  9995
2 66927  53.1596 345.6093 0000971  97.0319 275.4071 15.58713310  4089
