CCSDS_OMM_VERS = 2.0
CREATION_DATE  = 
ORIGINATOR     = 

OBJECT_NAME    = HULIANWANG DIGUI-106
OBJECT_ID      = 2025-285B
CENTER_NAME    = EARTH
REF_FRAME      = TEME
TIME_SYSTEM    = UTC
MEAN_ELEMENT_THEORY = SGP/SGP4

EPOCH          = 2025-12-25T17:28:12.965376
MEAN_MOTION    = 14.03704939
ECCENTRICITY   = .0006917
INCLINATION    = 50.0066
RA_OF_ASC_NODE = 64.3595
ARG_OF_PERICENTER = 319.3785
MEAN_ANOMALY   = 40.6603

EPHEMERIS_TYPE = 0
CLASSIFICATION_TYPE = U
NORAD_CAT_ID   = 66916
ELEMENT_SET_NO = 999
REV_AT_EPOCH   = 273
BSTAR          = .12186E-3
MEAN_MOTION_DOT = .41E-6
MEAN_MOTION_DDOT = 0

CCSDS_OMM_VERS = 2.0
CREATION_DATE  = 
ORIGINATOR     = 

OBJECT_NAME    = HULIANWANG DIGUI-107
OBJECT_ID      = 2025-285C
CENTER_NAME    = EARTH
REF_FRAME      = TEME
TIME_SYSTEM    = UTC
MEAN_ELEMENT_THEORY = SGP/SGP4

EPOCH          = 2025-12-25T17:25:45.681888
MEAN_MOTION    = 14.03664924
ECCENTRICITY   = .0007561
INCLINATION    = 50.0031
RA_OF_ASC_NODE = 64.3423
ARG_OF_PERICENTER = 328.7513
MEAN_ANOMALY   = 31.2941

EPHEMERIS_TYPE = 0
CLASSIFICATION_TYPE = U
NORAD_CAT_ID   = 66917
ELEMENT_SET_NO = 999
REV_AT_EPOCH   = 273
BSTAR          = .11531E-3
MEAN_MOTION_DOT = .31E-6
MEAN_MOTION_DDOT = 0

CCSDS_OMM_VERS = 2.0
CREATION_DATE  = 
ORIGINATOR     = 

OBJECT_NAME    = HULIANWANG DIGUI-108
OBJECT_ID      = 2025-285D
CENTER_NAME    = EARTH
REF_FRAME      = TEME
TIME_SYSTEM    = UTC
MEAN_ELEMENT_THEORY = SGP/SGP4

EPOCH          = 2025-12-25T17:24:57.095712
MEAN_MOTION    = 14.03604037
ECCENTRICITY   = .0006687
INCLINATION    = 50.0064
RA_OF_ASC_NODE = 64.3441
ARG_OF_PERICENTER = 323.3233
MEAN_ANOMALY   = 36.7213

EPHEMERIS_TYPE = 0
CLASSIFICATION_TYPE = U
NORAD_CAT_ID   = 66918
ELEMENT_SET_NO = 999
REV_AT_EPOCH   = 273
BSTAR          = .12299E-3
MEAN_MOTION_DOT = .43E-6
MEAN_MOTION_DDOT = 0

CCSDS_OMM_VERS = 2.0
CREATION_DATE  = 
ORIGINATOR     = 

OBJECT_NAME    = HULIANWANG DIGUI-109
OBJECT_ID      = 2025-285E
CENTER_NAME    = EARTH
REF_FRAME      = TEME
TIME_SYSTEM    = UTC
MEAN_ELEMENT_THEORY = SGP/SGP4

EPOCH          = 2025-12-25T17:22:16.951584
MEAN_MOTION    = 14.03728285
ECCENTRICITY   = .0007936
INCLINATION    = 50.0077
RA_OF_ASC_NODE = 64.3400
ARG_OF_PERICENTER = 335.6516
MEAN_ANOMALY   = 24.4013

EPHEMERIS_TYPE = 0
CLASSIFICATION_TYPE = U
NORAD_CAT_ID   = 66919
ELEMENT_SET_NO = 999
REV_AT_EPOCH   = 273
BSTAR          = .12991E-3
MEAN_MOTION_DOT = .54E-6
MEAN_MOTION_DDOT = 0

CCSDS_OMM_VERS = 2.0
CREATION_DATE  = 
ORIGINATOR     = 

OBJECT_NAME    = HULIANWANG DIGUI-110
OBJECT_ID      = 2025-285F
CENTER_NAME    = EARTH
REF_FRAME      = TEME
TIME_SYSTEM    = UTC
MEAN_ELEMENT_THEORY = SGP/SGP4

EPOCH          = 2025-12-25T19:03:47.169216
MEAN_MOTION    = 14.03684435
ECCENTRICITY   = .000565
INCLINATION    = 50.0121
RA_OF_ASC_NODE = 64.0540
ARG_OF_PERICENTER = 332.8565
MEAN_ANOMALY   = 27.2043

EPHEMERIS_TYPE = 0
CLASSIFICATION_TYPE = U
NORAD_CAT_ID   = 66920
ELEMENT_SET_NO = 999
REV_AT_EPOCH   = 274
BSTAR          = .11552E-3
MEAN_MOTION_DOT = .31E-6
MEAN_MOTION_DDOT = 0

CCSDS_OMM_VERS = 2.0
CREATION_DATE  = 
ORIGINATOR     = 

OBJECT_NAME    = HULIANWANG DIGUI-111
OBJECT_ID      = 2025-285G
CENTER_NAME    = EARTH
REF_FRAME      = TEME
TIME_SYSTEM    = UTC
MEAN_ELEMENT_THEORY = SGP/SGP4

EPOCH          = 2025-12-25T19:02:46.258944
MEAN_MOTION    = 14.03634019
ECCENTRICITY   = .0006729
INCLINATION    = 50.0126
RA_OF_ASC_NODE = 64.0540
ARG_OF_PERICENTER = 336.7721
MEAN_ANOMALY   = 23.2878

EPHEMERIS_TYPE = 0
CLASSIFICATION_TYPE = U
NORAD_CAT_ID   = 66921
ELEMENT_SET_NO = 999
REV_AT_EPOCH   = 274
BSTAR          = .12053E-3
MEAN_MOTION_DOT = .39E-6
MEAN_MOTION_DDOT = 0

CCSDS_OMM_VERS = 2.0
CREATION_DATE  = 
ORIGINATOR     = 

OBJECT_NAME    = HULIANWANG DIGUI-112
OBJECT_ID      = 2025-285H
CENTER_NAME    = EARTH
REF_FRAME      = TEME
TIME_SYSTEM    = UTC
MEAN_ELEMENT_THEORY = SGP/SGP4

EPOCH          = 2025-12-25T19:01:09.261120
MEAN_MOTION    = 14.03664021
ECCENTRICITY   = .0006541
INCLINATION    = 50.0100
RA_OF_ASC_NODE = 64.0396
ARG_OF_PERICENTER = 347.3560
MEAN_ANOMALY   = 12.7179

EPHEMERIS_TYPE = 0
CLASSIFICATION_TYPE = U
NORAD_CAT_ID   = 66922
ELEMENT_SET_NO = 999
REV_AT_EPOCH   = 274
BSTAR          = .11581E-3
MEAN_MOTION_DOT = .32E-6
MEAN_MOTION_DDOT = 0

CCSDS_OMM_VERS = 2.0
CREATION_DATE  = 
ORIGINATOR     = 

OBJECT_NAME    = HULIANWANG DIGUI-113
OBJECT_ID      = 2025-285J
CENTER_NAME    = EARTH
REF_FRAME      = TEME
TIME_SYSTEM    = UTC
MEAN_ELEMENT_THEORY = SGP/SGP4

EPOCH          = 2025-12-25T18:59:20.486976
MEAN_MOTION    = 14.03701985
ECCENTRICITY   = .0005152
INCLINATION    = 50.0098
RA_OF_ASC_NODE = 64.0347
ARG_OF_PERICENTER = 341.8765
MEAN_ANOMALY   = 18.1956

EPHEMERIS_TYPE = 0
CLASSIFICATION_TYPE = U
NORAD_CAT_ID   = 66923
ELEMENT_SET_NO = 999
REV_AT_EPOCH   = 274
BSTAR          = .12729E-3
MEAN_MOTION_DOT = .5E-6
MEAN_MOTION_DDOT = 0

CCSDS_OMM_VERS = 2.0
CREATION_DATE  = 
ORIGINATOR     = 

OBJECT_NAME    = CZ-8A R/B
OBJECT_ID      = 2025-285K
CENTER_NAME    = EARTH
REF_FRAME      = TEME
TIME_SYSTEM    = UTC
MEAN_ELEMENT_THEORY = SGP/SGP4

EPOCH          = 2025-12-25T10:40:55.363008
MEAN_MOTION    = 14.30506687
ECCENTRICITY   = .0119239
INCLINATION    = 50.0085
RA_OF_ASC_NODE = 62.0719
ARG_OF_PERICENTER = 151.5350
MEAN_ANOMALY   = 209.2146

EPHEMERIS_TYPE = 0
CLASSIFICATION_TYPE = U
NORAD_CAT_ID   = 66924
ELEMENT_SET_NO = 999
REV_AT_EPOCH   = 274
BSTAR          = .66135E-4
MEAN_MOTION_DOT = .21E-6
MEAN_MOTION_DDOT = 0

CCSDS_OMM_VERS = 2.0
CREATION_DATE  = 
ORIGINATOR     = 

OBJECT_NAME    = STARLINK-35945
OBJECT_ID      = 2025-286A
CENTER_NAME    = EARTH
REF_FRAME      = TEME
TIME_SYSTEM    = UTC
MEAN_ELEMENT_THEORY = SGP/SGP4

EPOCH          = 2025-12-25T18:00:02.000160
MEAN_MOTION    = 15.60565824
ECCENTRICITY   = .0000855
INCLINATION    = 53.1595
RA_OF_ASC_NODE = 345.5784
ARG_OF_PERICENTER = 93.8772
MEAN_ANOMALY   = 294.1395

EPHEMERIS_TYPE = 0
CLASSIFICATION_TYPE = U
NORAD_CAT_ID   = 66925
ELEMENT_SET_NO = 999
REV_AT_EPOCH   = 408
BSTAR          = -.26101E-1
MEAN_MOTION_DOT = -.1936693E-1
MEAN_MOTION_DDOT = 0

CCSDS_OMM_VERS = 2.0
CREATION_DATE  = 
ORIGINATOR     = 

OBJECT_NAME    = STARLINK-35942
OBJECT_ID      = 2025-286B
CENTER_NAME    = EARTH
REF_FRAME      = TEME
TIME_SYSTEM    = UTC
MEAN_ELEMENT_THEORY = SGP/SGP4

EPOCH          = 2025-12-25T18:00:02.000160
MEAN_MOTION    = 15.58719447
ECCENTRICITY   = .0001005
INCLINATION    = 53.1597
RA_OF_ASC_NODE = 345.6137
ARG_OF_PERICENTER = 85.8881
MEAN_ANOMALY   = 284.6314

EPHEMERIS_TYPE = 0
CLASSIFICATION_TYPE = U
NORAD_CAT_ID   = 66926
ELEMENT_SET_NO = 999
REV_AT_EPOCH   = 408
BSTAR          = -.28771E-1
MEAN_MOTION_DOT = -.1981955E-1
MEAN_MOTION_DDOT = 0

CCSDS_OMM_VERS = 2.0
CREATION_DATE  = 
ORIGINATOR     = 

OBJECT_NAME    = STARLINK-35943
OBJECT_ID      = 2025-286C
CENTER_NAME    = EARTH
REF_FRAME      = TEME
TIME_SYSTEM    = UTC
MEAN_ELEMENT_THEORY = SGP/SGP4

EPOCH          = 2025-12-25T18:00:02.000160
MEAN_MOTION    = 15.58713310
ECCENTRICITY   = .0000971
INCLINATION    = 53.1596
RA_OF_ASC_NODE = 345.6093
ARG_OF_PERICENTER = 97.0319
MEAN_ANOMALY   = 275.4071

EPHEMERIS_TYPE = 0
CLASSIFICATION_TYPE = U
NORAD_CAT_ID   = 66927
ELEMENT_SET_NO = 999
REV_AT_EPOCH   = 408
BSTAR          = -.28588E-1
MEAN_MOTION_DOT = -.1970519E-1
MEAN_MOTION_DDOT = 0

